IRIDIUM 152             
1 43479U 18047D   24303.62752342  .00000635  00000+0  21976-3 0  9991
2 43479  86.3972 337.2308 0002244  96.3088 263.8363 14.34215230337139
IRIDIUM 147             
1 43480U 18047E   24303.63386620  .00000069  00000+0  17750-4 0  9993
2 43480  86.3973 337.2232 0001895 101.6643 258.4766 14.34218943337126
IRIDIUM 110             
1 43481U 18047F   24303.64020632  .00001117  00000+0  39168-3 0  9994
2 43481  86.3975 337.2964 0002329 107.4228 252.7222 14.34207082337112
IRIDIUM 162             
1 43482U 18047G   24303.95743366  .00001454  00000+0  42607-3 0  9991
2 43482  86.4495 337.1318 0002131 101.6533 258.4907 14.43291399339275
IRIDIUM 160             
1 43569U 18061A   24304.00465469 -.00000021  00000+0 -14575-4 0  9990
2 43569  86.3922 305.5094 0001880  93.6515 266.4896 14.34216168328067
IRIDIUM 166             
1 43570U 18061B   24304.23936037  .00000597  00000+0  20601-3 0  9993
2 43570  86.3925 305.3698 0002465  87.2345 272.9133 14.34212407328125
IRIDIUM 158             
1 43571U 18061C   24303.99831166  .00000088  00000+0  24365-4 0  9990
2 43571  86.3923 305.4803 0002408  92.3657 267.7814 14.34217219328059
IRIDIUM 165             
1 43572U 18061D   24303.46553690  .00000091  00000+0  25497-4 0  9997
2 43572  86.3925 305.7385 0002159  87.0119 273.1324 14.34218139328001
IRIDIUM 155             
1 43573U 18061E   24303.98562800  .00000247  00000+0  81221-4 0  9998
2 43573  86.3920 305.4189 0002438  89.6810 270.4665 14.34217523328040
IRIDIUM 154             
1 43574U 18061F   24303.47822199  .00000089  00000+0  24845-4 0  9996
2 43574  86.3925 305.7356 0002101  93.2875 266.8562 14.34218177328023
IRIDIUM 163             
1 43575U 18061G   24303.94757337  .00000390  00000+0  13213-3 0  9991
2 43575  86.3922 305.4733 0002299  95.6057 264.5401 14.34218135328068
IRIDIUM 156             
1 43576U 18061H   24304.06174172  .00000099  00000+0  28221-4 0  9998
2 43576  86.3921 305.4322 0002573  88.0920 272.0571 14.34218344328066
IRIDIUM 164             
1 43577U 18061J   24304.25201864  .00000408  00000+0  13845-3 0  9998
2 43577  86.3924 305.3834 0002205  85.5400 274.6048 14.34219271328140
IRIDIUM 159             
1 43578U 18061K   24303.94123223  .00000184  00000+0  58784-4 0  9999
2 43578  86.3922 305.4629 0002148  91.2034 268.9408 14.34218315328060
IRIDIUM 180             
1 43922U 19002A   24303.59187947  .00000975  00000+0  34114-3 0  9990
2 43922  86.3973 242.4438 0002083  86.0091 274.1343 14.34223542303620
IRIDIUM 176             
1 43923U 19002B   24303.21813147  .00004908  00000+0  77373-3 0  9992
2 43923  86.6094 242.6106 0002285  95.5054 264.6424 14.72269158311561
IRIDIUM 168             
1 43924U 19002C   24303.23670029  .00000373  00000+0  12607-3 0  9996
2 43924  86.3971 242.6525 0002073  83.4991 276.6441 14.34215308303557
