[{"OBJECT_NAME":"IRIDIUM 152","OBJECT_ID":"2018-047D","EPOCH":"2024-10-29T15:03:38.023488","MEAN_MOTION":14.3421523,"ECCENTRICITY":0.0002244,"INCLINATION":86.3972,"RA_OF_ASC_NODE":337.2308,"ARG_OF_PERICENTER":96.3088,"MEAN_ANOMALY":263.8363,"EPHEMERIS_TYPE":0,"CLASSIFICATION_TYPE":"U","NORAD_CAT_ID":43479,"ELEMENT_SET_NO":999,"REV_AT_EPOCH":33713,"BSTAR":0.00021976,"MEAN_MOTION_DOT":6.35e-6,"MEAN_MOTION_DDOT":0},{"OBJECT_NAME":"IRIDIUM 147","OBJECT_ID":"2018-047E","EPOCH":"2024-10-29T15:12:46.039680","MEAN_MOTION":14.34218943,"ECCENTRICITY":0.0001895,"INCLINATION":86.3973,"RA_OF_ASC_NODE":337.2232,"ARG_OF_PERICENTER":101.6643,"MEAN_ANOMALY":258.4766,"EPHEMERIS_TYPE":0,"CLASSIFICATION_TYPE":"U","NORAD_CAT_ID":43480,"ELEMENT_SET_NO":999,"REV_AT_EPOCH":33712,"BSTAR":1.775e-5,"MEAN_MOTION_DOT":6.9e-7,"MEAN_MOTION_DDOT":0},{"OBJECT_NAME":"IRIDIUM 110","OBJECT_ID":"2018-047F","EPOCH":"2024-10-29T15:21:53.826048","MEAN_MOTION":14.34207082,"ECCENTRICITY":0.0002329,"INCLINATION":86.3975,"RA_OF_ASC_NODE":337.2964,"ARG_OF_PERICENTER":107.4228,"MEAN_ANOMALY":252.7222,"EPHEMERIS_TYPE":0,"CLASSIFICATION_TYPE":"U","NORAD_CAT_ID":43481,"ELEMENT_SET_NO":999,"REV_AT_EPOCH":33711,"BSTAR":0.00039168,"MEAN_MOTION_DOT":1.117e-5,"MEAN_MOTION_DDOT":0},{"OBJECT_NAME":"IRIDIUM 162","OBJECT_ID":"2018-047G","EPOCH":"2024-10-29T22:58:42.268224","MEAN_MOTION":14.43291399,"ECCENTRICITY":0.0002131,"INCLINATION":86.4495,"RA_OF_ASC_NODE":337.1318,"ARG_OF_PERICENTER":101.6533,"MEAN_ANOMALY":258.4907,"EPHEMERIS_TYPE":0,"CLASSIFICATION_TYPE":"U","NORAD_CAT_ID":43482,"ELEMENT_SET_NO":999,"REV_AT_EPOCH":33927,"BSTAR":0.00042607,"MEAN_MOTION_DOT":1.454e-5,"MEAN_MOTION_DDOT":0},{"OBJECT_NAME":"IRIDIUM 160","OBJECT_ID":"2018-061A","EPOCH":"2024-10-30T00:06:42.165216","MEAN_MOTION":14.34216168,"ECCENTRICITY":0.000188,"INCLINATION":86.3922,"RA_OF_ASC_NODE":305.5094,"ARG_OF_PERICENTER":93.6515,"MEAN_ANOMALY":266.4896,"EPHEMERIS_TYPE":0,"CLASSIFICATION_TYPE":"U","NORAD_CAT_ID":43569,"ELEMENT_SET_NO":999,"REV_AT_EPOCH":32806,"BSTAR":-1.4575e-5,"MEAN_MOTION_DOT":-2.1e-7,"MEAN_MOTION_DDOT":0},{"OBJECT_NAME":"IRIDIUM 166","OBJECT_ID":"2018-061B","EPOCH":"2024-10-30T05:44:40.735968","MEAN_MOTION":14.34212407,"ECCENTRICITY":0.0002465,"INCLINATION":86.3925,"RA_OF_ASC_NODE":305.3698,"ARG_OF_PERICENTER":87.2345,"MEAN_ANOMALY":272.9133,"EPHEMERIS_TYPE":0,"CLASSIFICATION_TYPE":"U","NORAD_CAT_ID":43570,"ELEMENT_SET_NO":999,"REV_AT_EPOCH":32812,"BSTAR":0.00020601,"MEAN_MOTION_DOT":5.97e-6,"MEAN_MOTION_DDOT":0},{"OBJECT_NAME":"IRIDIUM 158","OBJECT_ID":"2018-061C","EPOCH":"2024-10-29T23:57:34.127424","MEAN_MOTION":14.34217219,"ECCENTRICITY":0.0002408,"INCLINATION":86.3923,"RA_OF_ASC_NODE":305.4803,"ARG_OF_PERICENTER":92.3657,"MEAN_ANOMALY":267.7814,"EPHEMERIS_TYPE":0,"CLASSIFICATION_TYPE":"U","NORAD_CAT_ID":43571,"ELEMENT_SET_NO":999,"REV_AT_EPOCH":32805,"BSTAR":2.4365e-5,"MEAN_MOTION_DOT":8.8e-7,"MEAN_MOTION_DDOT":0},{"OBJECT_NAME":"IRIDIUM 165","OBJECT_ID":"2018-061D","EPOCH":"2024-10-29T11:10:22.388160","MEAN_MOTION":14.34218139,"ECCENTRICITY":0.0002159,"INCLINATION":86.3925,"RA_OF_ASC_NODE":305.7385,"ARG_OF_PERICENTER":87.0119,"MEAN_ANOMALY":273.1324,"EPHEMERIS_TYPE":0,"CLASSIFICATION_TYPE":"U","NORAD_CAT_ID":43572,"ELEMENT_SET_NO":999,"REV_AT_EPOCH":32800,"BSTAR":2.5497e-5,"MEAN_MOTION_DOT":9.1e-7,"MEAN_MOTION_DDOT":0},{"OBJECT_NAME":"IRIDIUM 155","OBJECT_ID":"2018-061E","EPOCH":"2024-10-29T23:39:18.259200","MEAN_MOTION":14.34217523,"ECCENTRICITY":0.0002438,"INCLINATION":86.392,"RA_OF_ASC_NODE":305.4189,"ARG_OF_PERICENTER":89.681,"MEAN_ANOMALY":270.4665,"EPHEMERIS_TYPE":0,"CLASSIFICATION_TYPE":"U","NORAD_CAT_ID":43573,"ELEMENT_SET_NO":999,"REV_AT_EPOCH":32804,"BSTAR":8.1221e-5,"MEAN_MOTION_DOT":2.47e-6,"MEAN_MOTION_DDOT":0},{"OBJECT_NAME":"IRIDIUM 154","OBJECT_ID":"2018-061F","EPOCH":"2024-10-29T11:28:38.379936","MEAN_MOTION":14.34218177,"ECCENTRICITY":0.0002101,"INCLINATION":86.3925,"RA_OF_ASC_NODE":305.7356,"ARG_OF_PERICENTER":93.2875,"MEAN_ANOMALY":266.8562,"EPHEMERIS_TYPE":0,"CLASSIFICATION_TYPE":"U","NORAD_CAT_ID":43574,"ELEMENT_SET_NO":999,"REV_AT_EPOCH":32802,"BSTAR":2.4845e-5,"MEAN_MOTION_DOT":8.9e-7,"MEAN_MOTION_DDOT":0},{"OBJECT_NAME":"IRIDIUM 163","OBJECT_ID":"2018-061G","EPOCH":"2024-10-29T22:44:30.339168","MEAN_MOTION":14.34218135,"ECCENTRICITY":0.0002299,"INCLINATION":86.3922,"RA_OF_ASC_NODE":305.4733,"ARG_OF_PERICENTER":95.6057,"MEAN_ANOMALY":264.5401,"EPHEMERIS_TYPE":0,"CLASSIFICATION_TYPE":"U","NORAD_CAT_ID":43575,"ELEMENT_SET_NO":999,"REV_AT_EPOCH":32806,"BSTAR":0.00013213,"MEAN_MOTION_DOT":3.9e-6,"MEAN_MOTION_DDOT":0},{"OBJECT_NAME":"IRIDIUM 156","OBJECT_ID":"2018-061H","EPOCH":"2024-10-30T01:28:54.484608","MEAN_MOTION":14.34218344,"ECCENTRICITY":0.0002573,"INCLINATION":86.3921,"RA_OF_ASC_NODE":305.4322,"ARG_OF_PERICENTER":88.092,"MEAN_ANOMALY":272.0571,"EPHEMERIS_TYPE":0,"CLASSIFICATION_TYPE":"U","NORAD_CAT_ID":43576,"ELEMENT_SET_NO":999,"REV_AT_EPOCH":32806,"BSTAR":2.8221e-5,"MEAN_MOTION_DOT":9.9e-7,"MEAN_MOTION_DDOT":0},{"OBJECT_NAME":"IRIDIUM 164","OBJECT_ID":"2018-061J","EPOCH":"2024-10-30T06:02:54.410496","MEAN_MOTION":14.34219271,"ECCENTRICITY":0.0002205,"INCLINATION":86.3924,"RA_OF_ASC_NODE":305.3834,"ARG_OF_PERICENTER":85.54,"MEAN_ANOMALY":274.6048,"EPHEMERIS_TYPE":0,"CLASSIFICATION_TYPE":"U","NORAD_CAT_ID":43577,"ELEMENT_SET_NO":999,"REV_AT_EPOCH":32814,"BSTAR":0.00013845,"MEAN_MOTION_DOT":4.08e-6,"MEAN_MOTION_DDOT":0},{"OBJECT_NAME":"IRIDIUM 159","OBJECT_ID":"2018-061K","EPOCH":"2024-10-29T22:35:22.464672","MEAN_MOTION":14.34218315,"ECCENTRICITY":0.0002148,"INCLINATION":86.3922,"RA_OF_ASC_NODE":305.4629,"ARG_OF_PERICENTER":91.2034,"MEAN_ANOMALY":268.9408,"EPHEMERIS_TYPE":0,"CLASSIFICATION_TYPE":"U","NORAD_CAT_ID":43578,"ELEMENT_SET_NO":999,"REV_AT_EPOCH":32806,"BSTAR":5.8784e-5,"MEAN_MOTION_DOT":1.84e-6,"MEAN_MOTION_DDOT":0},{"OBJECT_NAME":"IRIDIUM 180","OBJECT_ID":"2019-002A","EPOCH":"2024-10-29T14:12:18.386208","MEAN_MOTION":14.34223542,"ECCENTRICITY":0.0002083,"INCLINATION":86.3973,"RA_OF_ASC_NODE":242.4438,"ARG_OF_PERICENTER":86.0091,"MEAN_ANOMALY":274.1343,"EPHEMERIS_TYPE":0,"CLASSIFICATION_TYPE":"U","NORAD_CAT_ID":43922,"ELEMENT_SET_NO":999,"REV_AT_EPOCH":30362,"BSTAR":0.00034114,"MEAN_MOTION_DOT":9.75e-6,"MEAN_MOTION_DDOT":0},{"OBJECT_NAME":"IRIDIUM 176","OBJECT_ID":"2019-002B","EPOCH":"2024-10-29T05:14:06.559008","MEAN_MOTION":14.72269158,"ECCENTRICITY":0.0002285,"INCLINATION":86.6094,"RA_OF_ASC_NODE":242.6106,"ARG_OF_PERICENTER":95.5054,"MEAN_ANOMALY":264.6424,"EPHEMERIS_TYPE":0,"CLASSIFICATION_TYPE":"U","NORAD_CAT_ID":43923,"ELEMENT_SET_NO":999,"REV_AT_EPOCH":31156,"BSTAR":0.00077373,"MEAN_MOTION_DOT":4.908e-5,"MEAN_MOTION_DDOT":0},{"OBJECT_NAME":"IRIDIUM 168","OBJECT_ID":"2019-002C","EPOCH":"2024-10-29T05:40:50.905056","MEAN_MOTION":14.34215308,"ECCENTRICITY":0.0002073,"INCLINATION":86.3971,"RA_OF_ASC_NODE":242.6525,"ARG_OF_PERICENTER":83.4991,"MEAN_ANOMALY":276.6441,"EPHEMERIS_TYPE":0,"CLASSIFICATION_TYPE":"U","NORAD_CAT_ID":43924,"ELEMENT_SET_NO":999,"REV_AT_EPOCH":30355,"BSTAR":0.00012607,"MEAN_MOTION_DOT":3.73e-6,"MEAN_MOTION_DDOT":0}]